{
  "type": "FeatureCollection",
  "features": [
    {
      "type": "Feature",
      "properties": {
        "norad_id": 34540,
        "name": "IRIDIUM 33 DEB",
        "group": "iridium-33-debris",
        "lat": 7.6887092982948175,
        "lon": 131.75283856260015,
        "alt_km": 637.9613723383873,
        "timestamp": "2025-12-02T13:52:17.646245+00:00",
        "meta_object_name": "IRIDIUM 33 DEB",
        "meta_object_id": "1997-051JH",
        "meta_epoch": "2025-12-02T05:01:47.712864",
        "meta_mean_motion": 14.74951489,
        "meta_eccentricity": 0.00146572,
        "meta_inclination": 86.3092,
        "meta_ra_of_asc_node": 312.4205,
        "meta_arg_of_pericenter": 198.0634,
        "meta_mean_anomaly": 179.3079,
        "meta_ephemeris_type": 0,
        "meta_classification_type": "U",
        "meta_norad_cat_id": 34540,
        "meta_element_set_no": 999,
        "meta_rev_at_epoch": 88866,
        "meta_bstar": 0.0019621235,
        "meta_mean_motion_dot": 0.00013238,
        "meta_mean_motion_ddot": 0,
        "tle_line1": "1 34540U 97051JH  25336.20958001  .00013238  00000+0  19621-2 0  9999",
        "tle_line2": "2 34540  86.3092 312.4205 0014657 198.0634 179.3079 14.74951489888661"
      },
      "geometry": {
        "type": "Point",
        "coordinates": [
          131.75283856260015,
          7.6887092982948175
        ]
      }
    },
    {
      "type": "Feature",
      "properties": {
        "norad_id": 34648,
        "name": "IRIDIUM 33 DEB",
        "group": "iridium-33-debris",
        "lat": 45.5433275601452,
        "lon": 102.35821508284918,
        "alt_km": 982.1507788944937,
        "timestamp": "2025-12-02T13:52:17.646255+00:00",
        "meta_object_name": "IRIDIUM 33 DEB",
        "meta_object_id": "1997-051JZ",
        "meta_epoch": "2025-12-01T03:11:38.418720",
        "meta_mean_motion": 14.1087899,
        "meta_eccentricity": 0.01868529,
        "meta_inclination": 86.3903,
        "meta_ra_of_asc_node": 286.6295,
        "meta_arg_of_pericenter": 334.6513,
        "meta_mean_anomaly": 24.5588,
        "meta_ephemeris_type": 0,
        "meta_classification_type": "U",
        "meta_norad_cat_id": 34648,
        "meta_element_set_no": 999,
        "meta_rev_at_epoch": 84797,
        "meta_bstar": 0.0079356223,
        "meta_mean_motion_dot": 0.00016788,
        "meta_mean_motion_ddot": 0,
        "tle_line1": "1 34648U 97051JZ  25335.13308355  .00016788  00000+0  79356-2 0  9994",
        "tle_line2": "2 34648  86.3903 286.6295 0186852 334.6513  24.5588 14.10878990847973"
      },
      "geometry": {
        "type": "Point",
        "coordinates": [
          102.35821508284918,
          45.5433275601452
        ]
      }
    },
    {
      "type": "Feature",
      "properties": {
        "norad_id": 34651,
        "name": "IRIDIUM 33 DEB",
        "group": "iridium-33-debris",
        "lat": 24.38036094666174,
        "lon": 146.58591348084158,
        "alt_km": 892.395714545828,
        "timestamp": "2025-12-02T13:52:17.646265+00:00",
        "meta_object_name": "IRIDIUM 33 DEB",
        "meta_object_id": "1997-051KC",
        "meta_epoch": "2025-12-02T05:19:54.207552",
        "meta_mean_motion": 14.25531146,
        "meta_eccentricity": 0.01418616,
        "meta_inclination": 86.2826,
        "meta_ra_of_asc_node": 145.0488,
        "meta_arg_of_pericenter": 237.4272,
        "meta_mean_anomaly": 121.3155,
        "meta_ephemeris_type": 0,
        "meta_classification_type": "U",
        "meta_norad_cat_id": 34651,
        "meta_element_set_no": 999,
        "meta_rev_at_epoch": 85746,
        "meta_bstar": 0.0036308406,
        "meta_mean_motion_dot": 9.56e-05,
        "meta_mean_motion_ddot": 0,
        "tle_line1": "1 34651U 97051KC  25336.22215518  .00009560  00000+0  36308-2 0  9997",
        "tle_line2": "2 34651  86.2826 145.0488 0141861 237.4272 121.3155 14.25531146857461"
      },
      "geometry": {
        "type": "Point",
        "coordinates": [
          146.58591348084158,
          24.38036094666174
        ]
      }
    },
    {
      "type": "Feature",
      "properties": {
        "norad_id": 34652,
        "name": "IRIDIUM 33 DEB",
        "group": "iridium-33-debris",
        "lat": -8.721649344008057,
        "lon": 165.09062236730122,
        "alt_km": 707.0835911972526,
        "timestamp": "2025-12-02T13:52:17.646275+00:00",
        "meta_object_name": "IRIDIUM 33 DEB",
        "meta_object_id": "1997-051KD",
        "meta_epoch": "2025-12-02T00:00:47.418048",
        "meta_mean_motion": 14.61892089,
        "meta_eccentricity": 0.00271082,
        "meta_inclination": 86.3315,
        "meta_ra_of_asc_node": 344.7836,
        "meta_arg_of_pericenter": 336.6738,
        "meta_mean_anomaly": 55.158,
        "meta_ephemeris_type": 0,
        "meta_classification_type": "U",
        "meta_norad_cat_id": 34652,
        "meta_element_set_no": 999,
        "meta_rev_at_epoch": 88327,
        "meta_bstar": 0.0011175058,
        "meta_mean_motion_dot": 5.639e-05,
        "meta_mean_motion_ddot": 0,
        "tle_line1": "1 34652U 97051KD  25336.00054882  .00005639  00000+0  11175-2 0  9997",
        "tle_line2": "2 34652  86.3315 344.7836 0027108 336.6738  55.1580 14.61892089883277"
      },
      "geometry": {
        "type": "Point",
        "coordinates": [
          165.09062236730122,
          -8.721649344008057
        ]
      }
    },
    {
      "type": "Feature",
      "properties": {
        "norad_id": 34690,
        "name": "IRIDIUM 33 DEB",
        "group": "iridium-33-debris",
        "lat": -55.747657070235476,
        "lon": 36.07195740593215,
        "alt_km": 719.8946953274835,
        "timestamp": "2025-12-02T13:52:17.646286+00:00",
        "meta_object_name": "IRIDIUM 33 DEB",
        "meta_object_id": "1997-051KM",
        "meta_epoch": "2025-11-30T04:29:28.709376",
        "meta_mean_motion": 14.55018885,
        "meta_eccentricity": 0.00120076,
        "meta_inclination": 86.3793,
        "meta_ra_of_asc_node": 42.4459,
        "meta_arg_of_pericenter": 66.3956,
        "meta_mean_anomaly": 322.5053,
        "meta_ephemeris_type": 0,
        "meta_classification_type": "U",
        "meta_norad_cat_id": 34690,
        "meta_element_set_no": 999,
        "meta_rev_at_epoch": 87912,
        "meta_bstar": 0.00049664139,
        "meta_mean_motion_dot": 2.161e-05,
        "meta_mean_motion_ddot": 0,
        "tle_line1": "1 34690U 97051KM  25334.18713784  .00002161  00000+0  49664-3 0  9991",
        "tle_line2": "2 34690  86.3793  42.4459 0012007  66.3956 322.5053 14.55018885879125"
      },
      "geometry": {
        "type": "Point",
        "coordinates": [
          36.07195740593215,
          -55.747657070235476
        ]
      }
    },
    {
      "type": "Feature",
      "properties": {
        "norad_id": 34693,
        "name": "IRIDIUM 33 DEB",
        "group": "iridium-33-debris",
        "lat": -82.84162311986644,
        "lon": -82.10862681281958,
        "alt_km": 509.8489040190807,
        "timestamp": "2025-12-02T13:52:17.646296+00:00",
        "meta_object_name": "IRIDIUM 33 DEB",
        "meta_object_id": "1997-051KQ",
        "meta_epoch": "2025-12-02T05:02:44.336832",
        "meta_mean_motion": 15.24289177,
        "meta_eccentricity": 0.0016139,
        "meta_inclination": 86.305,
        "meta_ra_of_asc_node": 309.0413,
        "meta_arg_of_pericenter": 69.1334,
        "meta_mean_anomaly": 350.4377,
        "meta_ephemeris_type": 0,
        "meta_classification_type": "U",
        "meta_norad_cat_id": 34693,
        "meta_element_set_no": 999,
        "meta_rev_at_epoch": 88754,
        "meta_bstar": 0.0049862135,
        "meta_mean_motion_dot": 0.00124045,
        "meta_mean_motion_ddot": 0,
        "tle_line1": "1 34693U 97051KQ  25336.21023538  .00124045  00000+0  49862-2 0  9996",
        "tle_line2": "2 34693  86.3050 309.0413 0016139  69.1334 350.4377 15.24289177887542"
      },
      "geometry": {
        "type": "Point",
        "coordinates": [
          -82.10862681281958,
          -82.84162311986644
        ]
      }
    },
    {
      "type": "Feature",
      "properties": {
        "norad_id": 34696,
        "name": "IRIDIUM 33 DEB",
        "group": "iridium-33-debris",
        "lat": 85.92794286559271,
        "lon": 142.67952782392905,
        "alt_km": 690.4740706898492,
        "timestamp": "2025-12-02T13:52:17.646306+00:00",
        "meta_object_name": "IRIDIUM 33 DEB",
        "meta_object_id": "1997-051KT",
        "meta_epoch": "2025-12-01T15:05:30.511104",
        "meta_mean_motion": 14.64076144,
        "meta_eccentricity": 0.0075021,
        "meta_inclination": 86.1859,
        "meta_ra_of_asc_node": 32.6869,
        "meta_arg_of_pericenter": 205.0419,
        "meta_mean_anomaly": 287.6306,
        "meta_ephemeris_type": 0,
        "meta_classification_type": "U",
        "meta_norad_cat_id": 34696,
        "meta_element_set_no": 999,
        "meta_rev_at_epoch": 86510,
        "meta_bstar": 0.0055989172,
        "meta_mean_motion_dot": 0.00030736,
        "meta_mean_motion_ddot": 0,
        "tle_line1": "1 34696U 97051KT  25335.62882536  .00030736  00000+0  55989-2 0  9994",
        "tle_line2": "2 34696  86.1859  32.6869 0075021 205.0419 287.6306 14.64076144865106"
      },
      "geometry": {
        "type": "Point",
        "coordinates": [
          142.67952782392905,
          85.92794286559271
        ]
      }
    }
  ]
}